start=new Date('2022-02-04T00:00:00.000Z').valueOf();
sats=[{"RCS_SIZE":"LARGE","CENTER_NAME":"EARTH","TLE_LINE2":"2 46546  53.0554  47.7494 0001535  59.4932 300.6209 15.06395046 74178","LAUNCH_DATE":"2020-10-06","DECAY_DATE":null,"INCLINATION":"53.0554","NORAD_CAT_ID":"46546","OBJECT_TYPE":"PAYLOAD","MEAN_MOTION_DDOT":"0.0000000000000","ARG_OF_PERICENTER":"59.4932","RA_OF_ASC_NODE":"47.7494","PERIAPSIS":"546.166","MEAN_ANOMALY":"300.6209","SITE":"AFETR","FILE":"3291273","CLASSIFICATION_TYPE":"U","GP_ID":"195260483","PERIOD":"95.592","BSTAR":"0.00003057100000","REF_FRAME":"TEME","OBJECT_NAME":"STARLINK-1697","EPHEMERIS_TYPE":"0","REV_AT_EPOCH":"7417","ECCENTRICITY":"0.00015350","OBJECT_ID":"2020-070Q","MEAN_ELEMENT_THEORY":"SGP4","TIME_SYSTEM":"UTC","SEMIMAJOR_AXIS":"6925.364","MEAN_MOTION_DOT":"0.00000174","COUNTRY_CODE":"US","ELEMENT_SET_NO":"999","APOAPSIS":"548.292","TLE_LINE1":"1 46546U 20070Q   22034.72943919  .00000174  00000-0  30571-4 0  9991","EPOCH":"2022-02-03T17:30:23.546016","MEAN_MOTION":"15.06395046"},{"MEAN_MOTION_DOT":"0.00000917","COUNTRY_CODE":"US","ELEMENT_SET_NO":"999","EPOCH":"2022-02-03T18:12:50.662944","MEAN_MOTION":"15.06397945","TLE_LINE1":"1 46547U 20070R   22034.75891971  .00000917  00000-0  80449-4 0  9999","APOAPSIS":"548.447","OBJECT_ID":"2020-070R","ECCENTRICITY":"0.00017720","REV_AT_EPOCH":"7418","SEMIMAJOR_AXIS":"6925.355","TIME_SYSTEM":"UTC","MEAN_ELEMENT_THEORY":"SGP4","OBJECT_NAME":"STARLINK-1698","EPHEMERIS_TYPE":"0","GP_ID":"195260736","CLASSIFICATION_TYPE":"U","REF_FRAME":"TEME","BSTAR":"0.00008044900000","PERIOD":"95.592","MEAN_ANOMALY":"295.2312","FILE":"3291273","SITE":"AFETR","OBJECT_TYPE":"PAYLOAD","NORAD_CAT_ID":"46547","MEAN_MOTION_DDOT":"0.0000000000000","ARG_OF_PERICENTER":"64.8861","PERIAPSIS":"545.993","RA_OF_ASC_NODE":"47.6215","LAUNCH_DATE":"2020-10-06","DECAY_DATE":null,"INCLINATION":"53.0538","CENTER_NAME":"EARTH","RCS_SIZE":"LARGE","TLE_LINE2":"2 46547  53.0538  47.6215 0001772  64.8861 295.2312 15.06397945 74180"},{"OBJECT_TYPE":"PAYLOAD","MEAN_MOTION_DDOT":"0.0000000000000","ARG_OF_PERICENTER":"76.1320","NORAD_CAT_ID":"46548","RA_OF_ASC_NODE":"47.5806","PERIAPSIS":"546.189","MEAN_ANOMALY":"283.9833","FILE":"3291273","SITE":"AFETR","CENTER_NAME":"EARTH","RCS_SIZE":"LARGE","TLE_LINE2":"2 46548  53.0548  47.5806 0001475  76.1320 283.9833 15.06401076 74186","DECAY_DATE":null,"LAUNCH_DATE":"2020-10-06","INCLINATION":"53.0548","OBJECT_ID":"2020-070S","ECCENTRICITY":"0.00014750","REV_AT_EPOCH":"7418","SEMIMAJOR_AXIS":"6925.345","MEAN_ELEMENT_THEORY":"SGP4","TIME_SYSTEM":"UTC","COUNTRY_CODE":"US","ELEMENT_SET_NO":"999","MEAN_MOTION_DOT":"0.00001828","TLE_LINE1":"1 46548U 20070S   22034.76997326  .00001828  00000-0  14155-3 0  9994","MEAN_MOTION":"15.06401076","EPOCH":"2022-02-03T18:28:45.689664","APOAPSIS":"548.232","GP_ID":"195258985","CLASSIFICATION_TYPE":"U","REF_FRAME":"TEME","PERIOD":"95.592","BSTAR":"0.00014155000000","OBJECT_NAME":"STARLINK-1699","EPHEMERIS_TYPE":"0"},{"CLASSIFICATION_TYPE":"U","GP_ID":"195259235","BSTAR":"-0.00011783000000","PERIOD":"95.592","REF_FRAME":"TEME","OBJECT_NAME":"STARLINK-1700","EPHEMERIS_TYPE":"0","REV_AT_EPOCH":"7417","ECCENTRICITY":"0.00015010","OBJECT_ID":"2020-070T","TIME_SYSTEM":"UTC","MEAN_ELEMENT_THEORY":"SGP4","SEMIMAJOR_AXIS":"6925.347","ELEMENT_SET_NO":"999","COUNTRY_CODE":"US","MEAN_MOTION_DOT":"-0.00002036","APOAPSIS":"548.252","EPOCH":"2022-02-03T17:35:41.423712","MEAN_MOTION":"15.06400393","TLE_LINE1":"1 46549U 20070T   22034.73311833 -.00002036  00000-0 -11783-3 0  9993","CENTER_NAME":"EARTH","RCS_SIZE":"LARGE","TLE_LINE2":"2 46549  53.0543  47.7353 0001501  70.8753 289.2398 15.06400393 74177","DECAY_DATE":null,"LAUNCH_DATE":"2020-10-06","INCLINATION":"53.0543","OBJECT_TYPE":"PAYLOAD","MEAN_MOTION_DDOT":"0.0000000000000","NORAD_CAT_ID":"46549","ARG_OF_PERICENTER":"70.8753","PERIAPSIS":"546.173","RA_OF_ASC_NODE":"47.7353","MEAN_ANOMALY":"289.2398","SITE":"AFETR","FILE":"3291273"},{"APOAPSIS":"548.489","EPOCH":"2022-02-03T17:14:27.060864","MEAN_MOTION":"15.06401045","TLE_LINE1":"1 46550U 20070U   22034.71836876  .00000238  00000-0  34877-4 0  9992","COUNTRY_CODE":"US","ELEMENT_SET_NO":"999","MEAN_MOTION_DOT":"0.00000238","MEAN_ELEMENT_THEORY":"SGP4","TIME_SYSTEM":"UTC","SEMIMAJOR_AXIS":"6925.345","REV_AT_EPOCH":"7417","OBJECT_ID":"2020-070U","ECCENTRICITY":"0.00018470","EPHEMERIS_TYPE":"0","OBJECT_NAME":"STARLINK-1701","BSTAR":"0.00003487700000","PERIOD":"95.592","REF_FRAME":"TEME","GP_ID":"195259984","CLASSIFICATION_TYPE":"U","SITE":"AFETR","FILE":"3291273","MEAN_ANOMALY":"298.3335","PERIAPSIS":"545.931","RA_OF_ASC_NODE":"47.8066","MEAN_MOTION_DDOT":"0.0000000000000","OBJECT_TYPE":"PAYLOAD","ARG_OF_PERICENTER":"61.7840","NORAD_CAT_ID":"46550","INCLINATION":"53.0544","LAUNCH_DATE":"2020-10-06","DECAY_DATE":null,"TLE_LINE2":"2 46550  53.0544  47.8066 0001847  61.7840 298.3335 15.06401045 74178","CENTER_NAME":"EARTH","RCS_SIZE":"LARGE"},{"LAUNCH_DATE":"2020-10-06","DECAY_DATE":null,"INCLINATION":"53.0547","CENTER_NAME":"EARTH","RCS_SIZE":"LARGE","TLE_LINE2":"2 46552  53.0547  34.1744 0001557  66.3333 293.7819 15.06390443 74345","MEAN_ANOMALY":"293.7819","FILE":"3291268","SITE":"AFETR","NORAD_CAT_ID":"46552","OBJECT_TYPE":"PAYLOAD","MEAN_MOTION_DDOT":"0.0000000000000","ARG_OF_PERICENTER":"66.3333","PERIAPSIS":"546.165","RA_OF_ASC_NODE":"34.1744","OBJECT_NAME":"STARLINK-1649","EPHEMERIS_TYPE":"0","GP_ID":"195233750","CLASSIFICATION_TYPE":"U","REF_FRAME":"TEME","BSTAR":"0.00001525200000","PERIOD":"95.593","COUNTRY_CODE":"US","ELEMENT_SET_NO":"999","MEAN_MOTION_DOT":"-0.00000054","EPOCH":"2022-02-03T09:53:16.018944","MEAN_MOTION":"15.06390443","TLE_LINE1":"1 46552U 20070W   22034.41199096 -.00000054  00000-0  15252-4 0  9990","APOAPSIS":"548.321","ECCENTRICITY":"0.00015570","OBJECT_ID":"2020-070W","REV_AT_EPOCH":"7434","SEMIMAJOR_AXIS":"6925.378","TIME_SYSTEM":"UTC","MEAN_ELEMENT_THEORY":"SGP4"},{"REV_AT_EPOCH":"7461","OBJECT_ID":"2020-070X","ECCENTRICITY":"0.00013590","MEAN_ELEMENT_THEORY":"SGP4","TIME_SYSTEM":"UTC","SEMIMAJOR_AXIS":"6925.331","COUNTRY_CODE":"US","ELEMENT_SET_NO":"999","MEAN_MOTION_DOT":"0.00001076","APOAPSIS":"548.137","MEAN_MOTION":"15.06405735","EPOCH":"2022-02-03T20:06:54.765504","TLE_LINE1":"1 46553U 20070X   22034.83813386  .00001076  00000-0  91098-4 0  9998","CLASSIFICATION_TYPE":"U","GP_ID":"195259485","BSTAR":"0.00009109800000","PERIOD":"95.592","REF_FRAME":"TEME","OBJECT_NAME":"STARLINK-1664","EPHEMERIS_TYPE":"0","MEAN_MOTION_DDOT":"0.0000000000000","OBJECT_TYPE":"PAYLOAD","NORAD_CAT_ID":"46553","ARG_OF_PERICENTER":"68.5356","PERIAPSIS":"546.255","RA_OF_ASC_NODE":"17.2692","MEAN_ANOMALY":"291.5778","SITE":"AFETR","FILE":"3291273","RCS_SIZE":"LARGE","CENTER_NAME":"EARTH","TLE_LINE2":"2 46553  53.0546  17.2692 0001359  68.5356 291.5778 15.06405735 74619","DECAY_DATE":null,"LAUNCH_DATE":"2020-10-06","INCLINATION":"53.0546"},{"MEAN_ANOMALY":"284.7321","SITE":"AFETR","FILE":"3291273","NORAD_CAT_ID":"46554","OBJECT_TYPE":"PAYLOAD","MEAN_MOTION_DDOT":"0.0000000000000","ARG_OF_PERICENTER":"75.3827","RA_OF_ASC_NODE":"32.9196","PERIAPSIS":"546.212","LAUNCH_DATE":"2020-10-06","DECAY_DATE":null,"INCLINATION":"53.0550","RCS_SIZE":"LARGE","CENTER_NAME":"EARTH","TLE_LINE2":"2 46554  53.0550  32.9196 0001437  75.3827 284.7321 15.06402227 74389","MEAN_MOTION_DOT":"0.00001737","COUNTRY_CODE":"US","ELEMENT_SET_NO":"999","APOAPSIS":"548.202","TLE_LINE1":"1 46554U 20070Y   22034.69210814  .00001737  00000-0  13549-3 0  9998","MEAN_MOTION":"15.06402227","EPOCH":"2022-02-03T16:36:38.143296","REV_AT_EPOCH":"7438","ECCENTRICITY":"0.00014370","OBJECT_ID":"2020-070Y","MEAN_ELEMENT_THEORY":"SGP4","TIME_SYSTEM":"UTC","SEMIMAJOR_AXIS":"6925.342","OBJECT_NAME":"STARLINK-1671","EPHEMERIS_TYPE":"0","GP_ID":"195259735","CLASSIFICATION_TYPE":"U","PERIOD":"95.592","BSTAR":"0.00013549000000","REF_FRAME":"TEME"},{"RCS_SIZE":"LARGE","CENTER_NAME":"EARTH","TLE_LINE2":"2 46556  53.0547  47.6671 0001708  66.7641 293.3528 15.06416118 74184","DECAY_DATE":null,"LAUNCH_DATE":"2020-10-06","INCLINATION":"53.0547","MEAN_MOTION_DDOT":"0.0000000000000","OBJECT_TYPE":"PAYLOAD","NORAD_CAT_ID":"46556","ARG_OF_PERICENTER":"66.7641","PERIAPSIS":"545.981","RA_OF_ASC_NODE":"47.6671","MEAN_ANOMALY":"293.3528","FILE":"3291273","SITE":"AFETR","GP_ID":"195260484","CLASSIFICATION_TYPE":"U","REF_FRAME":"TEME","BSTAR":"0.00071001000000","PERIOD":"95.591","OBJECT_NAME":"STARLINK-1676","EPHEMERIS_TYPE":"0","OBJECT_ID":"2020-070AA","ECCENTRICITY":"0.00017080","REV_AT_EPOCH":"7418","SEMIMAJOR_AXIS":"6925.299","MEAN_ELEMENT_THEORY":"SGP4","TIME_SYSTEM":"UTC","MEAN_MOTION_DOT":"0.00010314","COUNTRY_CODE":"US","ELEMENT_SET_NO":"999","EPOCH":"2022-02-03T18:02:13.856928","MEAN_MOTION":"15.06416118","TLE_LINE1":"1 46556U 20070AA  22034.75154927  .00010314  00000-0  71001-3 0  9997","APOAPSIS":"548.347"},{"PERIAPSIS":"546.233","RA_OF_ASC_NODE":"32.7606","MEAN_MOTION_DDOT":"0.0000000000000","OBJECT_TYPE":"PAYLOAD","ARG_OF_PERICENTER":"71.4879","NORAD_CAT_ID":"46557","FILE":"3291273","SITE":"AFETR","MEAN_ANOMALY":"288.6263","TLE_LINE2":"2 46557  53.0560  32.7606 0001401  71.4879 288.6263 15.06403217 74391","RCS_SIZE":"LARGE","CENTER_NAME":"EARTH","INCLINATION":"53.0560","LAUNCH_DATE":"2020-10-06","DECAY_DATE":null,"SEMIMAJOR_AXIS":"6925.339","TIME_SYSTEM":"UTC","MEAN_ELEMENT_THEORY":"SGP4","OBJECT_ID":"2020-070AB","ECCENTRICITY":"0.00014010","REV_AT_EPOCH":"7439","EPOCH":"2022-02-03T17:29:43.001952","MEAN_MOTION":"15.06403217","TLE_LINE1":"1 46557U 20070AB  22034.72896993  .00000660  00000-0  63164-4 0  9996","APOAPSIS":"548.174","COUNTRY_CODE":"US","MEAN_MOTION_DOT":"0.00000660","ELEMENT_SET_NO":"999","REF_FRAME":"TEME","BSTAR":"0.00006316400000","PERIOD":"95.592","CLASSIFICATION_TYPE":"U","GP_ID":"195260737","EPHEMERIS_TYPE":"0","OBJECT_NAME":"STARLINK-1679"}];
